[Satellite]
VERSION=1.1
NAME=RHESSI
NICKNAME=RHESSI
TLE1=1 27370U 02004A   18020.84652052  .00001556  00000-0  57638-4 0  9998
TLE2=2 27370  38.0320 160.8601 0012011   4.8751 355.2134 15.29657885879596
